[{"OBJECT_NAME":"STARLINK-4122","OBJECT_ID":"2022-086AG","EPOCH":"2026-03-09T13:57:42.886368","MEAN_MOTION":15.08841375,"ECCENTRICITY":0.0001223,"INCLINATION":53.2172,"RA_OF_ASC_NODE":184.608,"ARG_OF_PERICENTER":76.6101,"MEAN_ANOMALY":283.5027,"EPHEMERIS_TYPE":0,"CLASSIFICATION_TYPE":"U","NORAD_CAT_ID":53272,"ELEMENT_SET_NO":999,"REV_AT_EPOCH":20118,"BSTAR":-1.2757e-5,"MEAN_MOTION_DOT":-4.91e-6,"MEAN_MOTION_DDOT":0},{"OBJECT_NAME":"OBJECT A","OBJECT_ID":"2024-128A","EPOCH":"2026-03-09T23:23:08.128896","MEAN_MOTION":15.00647164,"ECCENTRICITY":0.00604583,"INCLINATION":61.9933,"RA_OF_ASC_NODE":216.2149,"ARG_OF_PERICENTER":112.7248,"MEAN_ANOMALY":248.0248,"EPHEMERIS_TYPE":0,"CLASSIFICATION_TYPE":"U","NORAD_CAT_ID":60235,"ELEMENT_SET_NO":999,"REV_AT_EPOCH":9111,"BSTAR":0.00034041236,"MEAN_MOTION_DOT":4.284e-5,"MEAN_MOTION_DDOT":0}]
